ONEWEB-0656             
1 55817U 23029X   26139.11380917  .00000827  00000+0  20020-2 0  9995
2 55817  87.9167 280.2266 0002277 104.2393 255.8993 13.20765654157319
ONEWEB-0657             
1 55818U 23029Y   26139.18679183  .00000019  00000+0  14944-4 0  9992
2 55818  87.9147 310.7574 0001846 114.8323 245.3002 13.19726141155083
ONEWEB-0658             
1 55819U 23029Z   26139.18205295  .00000011  00000+0 -39918-5 0  9994
2 55819  87.9155 310.7315 0001426  85.3394 274.7902 13.19725971155096
ONEWEB-0660             
1 55820U 23029AA  26139.12577349  .00000102  00000+0  24136-3 0  9996
2 55820  87.8939 295.4934 0001864  85.8310 274.3033 13.14500847155585
ONEWEB-0661             
1 55821U 23029AB  26139.16065678 -.00000231  00000+0 -65878-3 0  9991
2 55821  87.8924 295.5352 0001957  87.7025 272.4329 13.14504264155575
ONEWEB-0662             
1 55822U 23029AC  26139.19554537  .00000223  00000+0  56612-3 0  9997
2 55822  87.8921 295.5353 0001840  85.1420 274.9919 13.14504461155623
ONEWEB-0663             
1 55823U 23029AD  26139.14962011 -.00000025  00000+0 -92100-4 0  9998
2 55823  87.9173 280.2922 0001677  85.5642 274.5683 13.20867093157317
ONEWEB-0664             
1 55824U 23029AE  26139.10032557  .00002543  00000+0  62226-2 0  9997
2 55824  87.9157 280.2862 0002883  86.4801 273.6662 13.20759531157303
ONEWEB-0665             
1 55825U 23029AF  26139.15749561 -.00000195  00000+0 -55987-3 0  9993
2 55825  87.8927 295.5166 0001744  85.2273 274.9056 13.14503729155598
ONEWEB-0666             
1 55826U 23029AG  26139.09359800 -.00002893  00000+0 -71484-2 0  9996
2 55826  87.9151 280.2773 0001850 121.3605 238.7710 13.20791886157310
ONEWEB-0667             
1 55827U 23029AH  26139.08854633 -.00000052  00000+0 -16105-3 0  9995
2 55827  87.9176 280.2319 0001900  92.8705 267.2646 13.20768592157305
ONEWEB-0669             
1 55828U 23029AJ  26139.31075669  .00000038  00000+0  60995-4 0  9995
2 55828  87.9165 280.2008 0002437 101.2863 258.8544 13.20770407157339
ONEWEB-0670             
1 55829U 23029AK  26139.13529095 -.00000030  00000+0 -11492-3 0  9994
2 55829  87.8923 295.5390 0002094  87.2879 272.8490 13.14503901155614
ONEWEB-0671             
1 55830U 23029AL  26139.17730410 -.00000041  00000+0 -13399-3 0  9995
2 55830  87.9148 310.7606 0001829  86.7668 273.3674 13.19726351155072
ONEWEB-0672             
1 55831U 23029AM  26139.15419247 -.00000347  00000+0 -88424-3 0  9996
2 55831  87.9165 280.2247 0002029 105.3325 254.8033 13.20771193157313
ONEWEB-0673             
1 55832U 23029AN  26139.23021914 -.00000144  00000+0 -39135-3 0  9996
2 55832  87.9158 310.7391 0001874  88.2815 271.8533 13.19724072155083
