[{"OBJECT_NAME":"ONEWEB-0656","OBJECT_ID":"2023-029X","EPOCH":"2026-05-19T02:43:53.112288","MEAN_MOTION":13.20765654,"ECCENTRICITY":0.0002277,"INCLINATION":87.9167,"RA_OF_ASC_NODE":280.2266,"ARG_OF_PERICENTER":104.2393,"MEAN_ANOMALY":255.8993,"EPHEMERIS_TYPE":0,"CLASSIFICATION_TYPE":"U","NORAD_CAT_ID":55817,"ELEMENT_SET_NO":999,"REV_AT_EPOCH":15731,"BSTAR":0.002002,"MEAN_MOTION_DOT":8.27e-06,"MEAN_MOTION_DDOT":0.0},{"OBJECT_NAME":"ONEWEB-0657","OBJECT_ID":"2023-029Y","EPOCH":"2026-05-19T04:28:58.814112","MEAN_MOTION":13.19726141,"ECCENTRICITY":0.0001846,"INCLINATION":87.9147,"RA_OF_ASC_NODE":310.7574,"ARG_OF_PERICENTER":114.8323,"MEAN_ANOMALY":245.3002,"EPHEMERIS_TYPE":0,"CLASSIFICATION_TYPE":"U","NORAD_CAT_ID":55818,"ELEMENT_SET_NO":999,"REV_AT_EPOCH":15508,"BSTAR":1.4944e-05,"MEAN_MOTION_DOT":1.9e-07,"MEAN_MOTION_DDOT":0.0},{"OBJECT_NAME":"ONEWEB-0658","OBJECT_ID":"2023-029Z","EPOCH":"2026-05-19T04:22:09.374880","MEAN_MOTION":13.19725971,"ECCENTRICITY":0.0001426,"INCLINATION":87.9155,"RA_OF_ASC_NODE":310.7315,"ARG_OF_PERICENTER":85.3394,"MEAN_ANOMALY":274.7902,"EPHEMERIS_TYPE":0,"CLASSIFICATION_TYPE":"U","NORAD_CAT_ID":55819,"ELEMENT_SET_NO":999,"REV_AT_EPOCH":15509,"BSTAR":-3.9918000000000005e-06,"MEAN_MOTION_DOT":1.1e-07,"MEAN_MOTION_DDOT":0.0},{"OBJECT_NAME":"ONEWEB-0660","OBJECT_ID":"2023-029AA","EPOCH":"2026-05-19T03:01:06.829536","MEAN_MOTION":13.14500847,"ECCENTRICITY":0.0001864,"INCLINATION":87.8939,"RA_OF_ASC_NODE":295.4934,"ARG_OF_PERICENTER":85.831,"MEAN_ANOMALY":274.3033,"EPHEMERIS_TYPE":0,"CLASSIFICATION_TYPE":"U","NORAD_CAT_ID":55820,"ELEMENT_SET_NO":999,"REV_AT_EPOCH":15558,"BSTAR":0.00024136,"MEAN_MOTION_DOT":1.02e-06,"MEAN_MOTION_DDOT":0.0},{"OBJECT_NAME":"ONEWEB-0661","OBJECT_ID":"2023-029AB","EPOCH":"2026-05-19T03:51:20.745792","MEAN_MOTION":13.14504264,"ECCENTRICITY":0.0001957,"INCLINATION":87.8924,"RA_OF_ASC_NODE":295.5352,"ARG_OF_PERICENTER":87.7025,"MEAN_ANOMALY":272.4329,"EPHEMERIS_TYPE":0,"CLASSIFICATION_TYPE":"U","NORAD_CAT_ID":55821,"ELEMENT_SET_NO":999,"REV_AT_EPOCH":15557,"BSTAR":-0.0006587800000000001,"MEAN_MOTION_DOT":-2.31e-06,"MEAN_MOTION_DDOT":0.0},{"OBJECT_NAME":"ONEWEB-0662","OBJECT_ID":"2023-029AC","EPOCH":"2026-05-19T04:41:35.119968","MEAN_MOTION":13.14504461,"ECCENTRICITY":0.000184,"INCLINATION":87.8921,"RA_OF_ASC_NODE":295.5353,"ARG_OF_PERICENTER":85.142,"MEAN_ANOMALY":274.9919,"EPHEMERIS_TYPE":0,"CLASSIFICATION_TYPE":"U","NORAD_CAT_ID":55822,"ELEMENT_SET_NO":999,"REV_AT_EPOCH":15562,"BSTAR":0.0005661199999999999,"MEAN_MOTION_DOT":2.23e-06,"MEAN_MOTION_DDOT":0.0},{"OBJECT_NAME":"ONEWEB-0663","OBJECT_ID":"2023-029AD","EPOCH":"2026-05-19T03:35:27.177504","MEAN_MOTION":13.20867093,"ECCENTRICITY":0.0001677,"INCLINATION":87.9173,"RA_OF_ASC_NODE":280.2922,"ARG_OF_PERICENTER":85.5642,"MEAN_ANOMALY":274.5683,"EPHEMERIS_TYPE":0,"CLASSIFICATION_TYPE":"U","NORAD_CAT_ID":55823,"ELEMENT_SET_NO":999,"REV_AT_EPOCH":15731,"BSTAR":-9.21e-05,"MEAN_MOTION_DOT":-2.5e-07,"MEAN_MOTION_DDOT":0.0},{"OBJECT_NAME":"ONEWEB-0664","OBJECT_ID":"2023-029AE","EPOCH":"2026-05-19T02:24:28.129248","MEAN_MOTION":13.20759531,"ECCENTRICITY":0.0002883,"INCLINATION":87.9157,"RA_OF_ASC_NODE":280.2862,"ARG_OF_PERICENTER":86.4801,"MEAN_ANOMALY":273.6662,"EPHEMERIS_TYPE":0,"CLASSIFICATION_TYPE":"U","NORAD_CAT_ID":55824,"ELEMENT_SET_NO":999,"REV_AT_EPOCH":15730,"BSTAR":0.006222600000000001,"MEAN_MOTION_DOT":2.543e-05,"MEAN_MOTION_DDOT":0.0},{"OBJECT_NAME":"ONEWEB-0665","OBJECT_ID":"2023-029AF","EPOCH":"2026-05-19T03:46:47.620704","MEAN_MOTION":13.14503729,"ECCENTRICITY":0.0001744,"INCLINATION":87.8927,"RA_OF_ASC_NODE":295.5166,"ARG_OF_PERICENTER":85.2273,"MEAN_ANOMALY":274.9056,"EPHEMERIS_TYPE":0,"CLASSIFICATION_TYPE":"U","NORAD_CAT_ID":55825,"ELEMENT_SET_NO":999,"REV_AT_EPOCH":15559,"BSTAR":-0.00055987,"MEAN_MOTION_DOT":-1.95e-06,"MEAN_MOTION_DDOT":0.0},{"OBJECT_NAME":"ONEWEB-0666","OBJECT_ID":"2023-029AG","EPOCH":"2026-05-19T02:14:46.867200","MEAN_MOTION":13.20791886,"ECCENTRICITY":0.000185,"INCLINATION":87.9151,"RA_OF_ASC_NODE":280.2773,"ARG_OF_PERICENTER":121.3605,"MEAN_ANOMALY":238.771,"EPHEMERIS_TYPE":0,"CLASSIFICATION_TYPE":"U","NORAD_CAT_ID":55826,"ELEMENT_SET_NO":999,"REV_AT_EPOCH":15731,"BSTAR":-0.0071484,"MEAN_MOTION_DOT":-2.893e-05,"MEAN_MOTION_DDOT":0.0},{"OBJECT_NAME":"ONEWEB-0667","OBJECT_ID":"2023-029AH","EPOCH":"2026-05-19T02:07:30.402912","MEAN_MOTION":13.20768592,"ECCENTRICITY":0.00019,"INCLINATION":87.9176,"RA_OF_ASC_NODE":280.2319,"ARG_OF_PERICENTER":92.8705,"MEAN_ANOMALY":267.2646,"EPHEMERIS_TYPE":0,"CLASSIFICATION_TYPE":"U","NORAD_CAT_ID":55827,"ELEMENT_SET_NO":999,"REV_AT_EPOCH":15730,"BSTAR":-0.00016105,"MEAN_MOTION_DOT":-5.2e-07,"MEAN_MOTION_DDOT":0.0},{"OBJECT_NAME":"ONEWEB-0669","OBJECT_ID":"2023-029AJ","EPOCH":"2026-05-19T07:27:29.378016","MEAN_MOTION":13.20770407,"ECCENTRICITY":0.0002437,"INCLINATION":87.9165,"RA_OF_ASC_NODE":280.2008,"ARG_OF_PERICENTER":101.2863,"MEAN_ANOMALY":258.8544,"EPHEMERIS_TYPE":0,"CLASSIFICATION_TYPE":"U","NORAD_CAT_ID":55828,"ELEMENT_SET_NO":999,"REV_AT_EPOCH":15733,"BSTAR":6.0995e-05,"MEAN_MOTION_DOT":3.8e-07,"MEAN_MOTION_DDOT":0.0},{"OBJECT_NAME":"ONEWEB-0670","OBJECT_ID":"2023-029AK","EPOCH":"2026-05-19T03:14:49.138080","MEAN_MOTION":13.14503901,"ECCENTRICITY":0.0002094,"INCLINATION":87.8923,"RA_OF_ASC_NODE":295.539,"ARG_OF_PERICENTER":87.2879,"MEAN_ANOMALY":272.849,"EPHEMERIS_TYPE":0,"CLASSIFICATION_TYPE":"U","NORAD_CAT_ID":55829,"ELEMENT_SET_NO":999,"REV_AT_EPOCH":15561,"BSTAR":-0.00011491999999999999,"MEAN_MOTION_DOT":-3e-07,"MEAN_MOTION_DDOT":0.0},{"OBJECT_NAME":"ONEWEB-0671","OBJECT_ID":"2023-029AL","EPOCH":"2026-05-19T04:15:19.074240","MEAN_MOTION":13.19726351,"ECCENTRICITY":0.0001829,"INCLINATION":87.9148,"RA_OF_ASC_NODE":310.7606,"ARG_OF_PERICENTER":86.7668,"MEAN_ANOMALY":273.3674,"EPHEMERIS_TYPE":0,"CLASSIFICATION_TYPE":"U","NORAD_CAT_ID":55830,"ELEMENT_SET_NO":999,"REV_AT_EPOCH":15507,"BSTAR":-0.00013399,"MEAN_MOTION_DOT":-4.1e-07,"MEAN_MOTION_DDOT":0.0},{"OBJECT_NAME":"ONEWEB-0672","OBJECT_ID":"2023-029AM","EPOCH":"2026-05-19T03:42:02.229408","MEAN_MOTION":13.20771193,"ECCENTRICITY":0.0002029,"INCLINATION":87.9165,"RA_OF_ASC_NODE":280.2247,"ARG_OF_PERICENTER":105.3325,"MEAN_ANOMALY":254.8033,"EPHEMERIS_TYPE":0,"CLASSIFICATION_TYPE":"U","NORAD_CAT_ID":55831,"ELEMENT_SET_NO":999,"REV_AT_EPOCH":15731,"BSTAR":-0.00088424,"MEAN_MOTION_DOT":-3.47e-06,"MEAN_MOTION_DDOT":0.0},{"OBJECT_NAME":"ONEWEB-0673","OBJECT_ID":"2023-029AN","EPOCH":"2026-05-19T05:31:30.933696","MEAN_MOTION":13.19724072,"ECCENTRICITY":0.0001874,"INCLINATION":87.9158,"RA_OF_ASC_NODE":310.7391,"ARG_OF_PERICENTER":88.2815,"MEAN_ANOMALY":271.8533,"EPHEMERIS_TYPE":0,"CLASSIFICATION_TYPE":"U","NORAD_CAT_ID":55832,"ELEMENT_SET_NO":999,"REV_AT_EPOCH":15508,"BSTAR":-0.00039135,"MEAN_MOTION_DOT":-1.44e-06,"MEAN_MOTION_DDOT":0.0}]